NOAA 1 [-]              
1 04793U 70106A   21363.15571803 -.00000051  00000+0 -41588-4 0  9999
2 04793 101.5840  66.1011 0031328 293.4746 132.8576 12.54002273336247
NOAA 2 (ITOS-D) [-]     
1 06235U 72082A   21363.58999188 -.00000013  00000+0  20775-3 0  9995
2 06235 101.9324 339.9117 0004267  40.3082  76.0526 12.53141873250690
NOAA 3 [-]              
1 06920U 73086A   21363.53637740 -.00000016  00000+0  22276-3 0  9990
2 06920 102.1861 339.7057 0006339 245.6664 229.7294 12.40344565179721
NOAA 4 [-]              
1 07529U 74089A   21363.56904123 -.00000021  00000+0  15327-3 0  9990
2 07529 101.8915 337.8618 0009239  68.9073  39.8724 12.53153457155260
NOAA 5 [-]              
1 09057U 76077A   21363.51680203 -.00000018  00000+0  20320-3 0  9997
2 09057 102.0738 328.4860 0009975  91.1882  23.2844 12.37766036 52713
TIROS N [-]             
1 11060U 78096A   21363.12535694  .00000075  00000+0  57096-4 0  9990
2 11060  98.6627  56.1699 0009567 273.6389  86.3693 14.18341784447460
NOAA 6 [-]              
1 11416U 79057A   21363.60686239  .00000139  00000+0  66192-4 0  9996
2 11416  98.6668   9.1784 0011025  44.4018 315.8048 14.33680185217184
NOAA 7 [-]              
1 12553U 81059A   21363.59074587  .00000012  00000+0  28540-4 0  9994
2 12553  99.0246  40.6834 0010725 235.9373 124.0783 14.17309974 93732
NOAA 8 [-]              
1 13923U 83022A   21363.53514705  .00000075  00000+0  47327-4 0  9996
2 13923  98.6727 349.8765 0014955 350.6016   9.4884 14.28762784 18142
NOAA 9 [-]              
1 15427U 84123A   21363.54298674  .00000074  00000+0  60482-4 0  9991
2 15427  99.0224 328.4815 0013976 288.8468 179.8380 14.16159296912561
NOAA 10 [-]             
1 16969U 86073A   21363.56765681  .00000062  00000+0  42153-4 0  9990
2 16969  98.5516 348.0091 0013324  90.7789  17.6456 14.28159269836581
NOAA 11 [-]             
1 19531U 88089A   21363.60022336  .00000035  00000+0  38731-4 0  9992
2 19531  98.4121 357.1331 0010329 312.5395  47.4907 14.15287531716790
NOAA 12 [-]             
1 21263U 91032A   21363.61710563  .00000044  00000+0  36209-4 0  9994
2 21263  98.5092   3.2549 0014730 114.6032 245.6684 14.25961082592520
NOAA 13 [-]             
1 22739U 93050A   21363.54898681  .00000055  00000+0  51709-4 0  9999
2 22739  98.4861 346.9995 0010527 108.0404 252.1917 14.12807044463065
NOAA 14 [-]             
1 23455U 94089A   21363.60861157  .00000007  00000+0  25046-4 0  9995
2 23455  98.4683  34.3183 0010613  92.8457 267.3932 14.14176439392700
NOAA 15 [B]             
1 25338U 98030A   21363.56028712  .00000081  00000+0  52009-4 0  9995
2 25338  98.6636  30.1540 0011364  74.7638 285.4798 14.26079143228804
NOAA 16 [-]             
1 26536U 00055A   21363.55888552  .00000023  00000+0  35055-4 0  9999
2 26536  98.6633  63.1145 0009505 292.6060  67.4107 14.13298604393359
NOAA 17 [-]             
1 27453U 02032A   21363.59421762  .00000056  00000+0  42466-4 0  9995
2 27453  98.6526 306.0286 0012698  49.4178 310.8104 14.25085222 14668
NOAA 18 [B]             
1 28654U 05018A   21363.50826061  .00000121  00000+0  89456-4 0  9991
2 28654  98.9721  68.9249 0015181  92.3661 267.9249 14.12671773855987
NOAA 19 [+]             
1 33591U 09005A   21363.56151637  .00000092  00000+0  75168-4 0  9995
2 33591  99.1682  28.9589 0013156 307.4103  52.5870 14.12518500664205
SUOMI NPP [+]           
1 37849U 11061A   21363.55498868  .00000032  00000+0  35965-4 0  9994
2 37849  98.7171 299.6080 0001432  92.4580  23.8879 14.19571273527098
NOAA 20 [+]             
1 43013U 17073A   21363.56622955  .00000029  00000+0  34667-4 0  9994
2 43013  98.7411 299.3983 0001150 101.1647 258.9658 14.19566579213128
